NORAD_CAT_ID,OBJECT_NAME,OBJECT_TYPE,EPOCH,MEAN_MOTION,ECCENTRICITY,INCLINATION,RA_OF_ASC_NODE,ARG_OF_PERICENTER,MEAN_ANOMALY,BSTAR,MEAN_MOTION_DOT,MEAN_MOTION_DDOT,TLE_LINE0,TLE_LINE1,TLE_LINE2,SEMIMAJOR_AXIS,PERIOD,APOGEE,PERIGEE,DECAYED
51133.0,STARLINK-3356,PAYLOAD,2024-01-18 11:54:00,15.08837678,0.000133,53.2162,206.0383,94.4866,265.6278,7.6088e-05,9.23e-06,0.0,0 STARLINK-3356,1 51133U 22005AF  24018.49584288  .00000923  00000-0  76088-4 0  9992,2 51133  53.2162 206.0383 0001330  94.4866 265.6278 15.08837678110797,6917.887,95.438,540.673,538.832,0.0
51133.0,STARLINK-3356,PAYLOAD,2024-01-18 21:26:19,15.08839099,0.0001268,53.2154,204.2529,92.9877,267.126,7.5854e-05,9.2e-06,0.0,0 STARLINK-3356,1 51133U 22005AF  24018.89328247  .00000920  00000-0  75854-4 0  9994,2 51133  53.2154 204.2529 0001268  92.9877 267.1260 15.08839099110859,6917.883,95.438,540.625,538.871,0.0
51133.0,STARLINK-3356,PAYLOAD,2024-01-19 11:44:47,15.08839812,0.0001254,53.2153,201.5766,93.3954,266.7182,7.0122e-05,8.28e-06,0.0,0 STARLINK-3356,1 51133U 22005AF  24019.48944329  .00000828  00000-0  70122-4 0  9995,2 51133  53.2153 201.5766 0001254  93.3954 266.7182 15.08839812110948,6917.881,95.438,540.613,538.878,0.0
51133.0,STARLINK-3356,PAYLOAD,2024-01-19 19:41:43,15.0884288,0.0001261,53.2154,200.09,91.7126,268.4011,8.8417e-05,1.12e-05,0.0,0 STARLINK-3356,1 51133U 22005AF  24019.82064054  .00001120  00000-0  88417-4 0  9993,2 51133  53.2154 200.0900 0001261  91.7126 268.4011 15.08842880110998,6917.872,95.437,540.609,538.864,0.0
51133.0,STARLINK-3356,PAYLOAD,2024-01-20 17:57:07,15.08838354,0.0001288,53.2153,195.9267,91.9724,268.1415,4.3696e-05,4.08e-06,0.0,0 STARLINK-3356,1 51133U 22005AF  24020.74800556  .00000408  00000-0  43696-4 0  9999,2 51133  53.2153 195.9267 0001288  91.9724 268.1415 15.08838354112257,6917.885,95.438,540.641,538.859,0.0
51133.0,STARLINK-3356,PAYLOAD,2024-01-21 20:58:40,15.08848263,0.0001374,53.2161,190.872,91.1365,268.9784,0.00010616,1.402e-05,0.0,0 STARLINK-3356,1 51133U 22005AF  24021.87407646  .00001402  00000-0  10616-3 0  9997,2 51133  53.2161 190.8720 0001374  91.1365 268.9784 15.08848263111305,6917.855,95.437,540.671,538.77,0.0
51133.0,STARLINK-3356,PAYLOAD,2024-01-22 11:17:09,15.08839223,0.0001391,53.2163,188.1938,99.4321,260.6828,2.4591e-05,1.03e-06,0.0,0 STARLINK-3356,1 51133U 22005AF  24022.47024492  .00000103  00000-0  24591-4 0  9993,2 51133  53.2163 188.1938 0001391  99.4321 260.6828 15.08839223112518,6917.883,95.438,540.71,538.785,0.0
51133.0,STARLINK-3356,PAYLOAD,2024-01-22 17:38:41,15.08841519,0.0001457,53.2166,187.0045,109.2325,250.8825,1.2172e-05,-9.4e-07,0.0,0 STARLINK-3356,1 51133U 22005AF  24022.73520310 -.00000094  00000-0  12172-4 0  9994,2 51133  53.2166 187.0045 0001457 109.2325 250.8825 15.08841519111434,6917.876,95.437,540.749,538.733,0.0
51133.0,STARLINK-3356,PAYLOAD,2024-01-23 15:54:05,15.08841922,0.0001442,53.217,182.84,110.8388,249.2759,-3.2437e-05,-8.04e-06,0.0,0 STARLINK-3356,1 51133U 22005AF  24023.66256471 -.00000804  00000-0 -32437-4 0  9997,2 51133  53.2170 182.8400 0001442 110.8388 249.2759 15.08841922112693,6917.875,95.437,540.737,538.742,0.0
51133.0,STARLINK-3356,PAYLOAD,2024-01-23 17:29:28,15.08841078,0.0001482,53.2168,182.5423,112.3127,247.8022,-2.853e-05,-7.42e-06,0.0,0 STARLINK-3356,1 51133U 22005AF  24023.72880441 -.00000742  00000-0 -28530-4 0  9994,2 51133  53.2168 182.5423 0001482 112.3127 247.8022 15.08841078111580,6917.877,95.437,540.767,538.717,0.0
51133.0,STARLINK-3356,PAYLOAD,2024-01-24 14:09:30,15.08833669,0.0001581,53.2175,178.6803,117.3956,242.7197,1.6385e-05,-2.7e-07,0.0,0 STARLINK-3356,1 51133U 22005AF  24024.58993085 -.00000027  00000-0  16385-4 0  9998,2 51133  53.2175 178.6803 0001581 117.3956 242.7197 15.08833669111710,6917.9,95.438,540.858,538.671,0.0
51133.0,STARLINK-3356,PAYLOAD,2024-01-24 17:20:16,15.08833557,0.0001462,53.2175,178.0854,111.3658,248.749,9.078e-06,-1.43e-06,0.0,0 STARLINK-3356,1 51133U 22005AF  24024.72241177 -.00000143  00000-0  90780-5 0  9993,2 51133  53.2175 178.0854 0001462 111.3658 248.7490 15.08833557112855,6917.9,95.438,540.776,538.754,0.0
51133.0,STARLINK-3356,PAYLOAD,2024-01-25 14:00:17,15.08836436,0.0001338,53.2174,174.2173,106.1549,253.9591,5.678e-05,6.16e-06,0.0,0 STARLINK-3356,1 51133U 22005AF  24025.58353117  .00000616  00000-0  56780-4 0  9991,2 51133  53.2174 174.2173 0001338 106.1549 253.9591 15.08836436111868,6917.891,95.438,540.682,538.831,0.0
51133.0,STARLINK-3356,PAYLOAD,2024-01-25 17:11:03,15.08816804,0.0001346,53.2171,173.6213,95.6364,264.4782,0.00035372,5.342e-05,0.0,0 STARLINK-3356,1 51133U 22005AF  24025.71601408  .00005342  00000-0  35372-3 0  9999,2 51133  53.2171 173.6213 0001346  95.6364 264.4782 15.08816804111887,6917.951,95.439,540.747,538.885,0.0
51133.0,STARLINK-3356,PAYLOAD,2024-01-26 13:51:04,15.08839518,0.0001171,53.2171,169.7573,80.2998,279.8126,7.5654e-05,9.16e-06,0.0,0 STARLINK-3356,1 51133U 22005AF  24026.57713184  .00000916  00000-0  75654-4 0  9999,2 51133  53.2171 169.7573 0001171  80.2998 279.8126 15.08839518112016,6917.882,95.438,540.557,538.937,0.0
51133.0,STARLINK-3356,PAYLOAD,2024-01-26 17:01:50,15.08843891,0.0001267,53.2175,169.1636,77.2649,282.8485,0.00011376,1.523e-05,0.0,0 STARLINK-3356,1 51133U 22005AF  24026.70960852  .00001523  00000-0  11376-3 0  9995,2 51133  53.2175 169.1636 0001267  77.2649 282.8485 15.08843891113156,6917.868,95.437,540.61,538.857,0.0
51133.0,STARLINK-3356,PAYLOAD,2024-01-27 13:41:51,15.08841104,0.0001542,53.2175,165.302,65.9448,294.1706,5.2576e-05,5.49e-06,0.0,0 STARLINK-3356,1 51133U 22005AF  24027.57073375  .00000549  00000-0  52576-4 0  9991,2 51133  53.2175 165.3020 0001542  65.9448 294.1706 15.08841104112165,6917.877,95.437,540.809,538.675,0.0
51133.0,STARLINK-3356,PAYLOAD,2024-01-27 15:17:14,15.08841808,0.00016,53.2176,165.0047,63.892,296.2237,5.8703e-05,6.46e-06,0.0,0 STARLINK-3356,1 51133U 22005AF  24027.63697329  .00000646  00000-0  58703-4 0  9995,2 51133  53.2176 165.0047 0001600  63.8920 296.2237 15.08841808113297,6917.875,95.437,540.847,538.633,0.0
51133.0,STARLINK-3356,PAYLOAD,2024-01-28 13:32:38,15.08839109,0.0001705,53.217,160.8419,64.6018,295.515,-7.5471e-06,-4.08e-06,0.0,0 STARLINK-3356,1 51133U 22005AF  24028.56433714 -.00000408  00000-0 -75471-5 0  9994,2 51133  53.2170 160.8419 0001705  64.6018 295.5150 15.08839109112319,6917.883,95.438,540.928,538.569,0.0
51133.0,STARLINK-3356,PAYLOAD,2024-01-28 18:18:47,15.08845273,0.0001362,53.2168,159.9476,82.4537,277.661,8.914e-06,-1.46e-06,0.0,0 STARLINK-3356,1 51133U 22005AF  24028.76305102 -.00000146  00000-0  89140-5 0  9991,2 51133  53.2168 159.9476 0001362  82.4537 277.6610 15.08845273113469,6917.864,95.437,540.671,538.787,0.0
51133.0,STARLINK-3356,PAYLOAD,2024-01-29 11:48:01,15.08846643,0.0001207,53.2168,156.672,106.5288,253.5837,1.4774e-05,-5.3e-07,0.0,0 STARLINK-3356,1 51133U 22005AF  24029.49168779 -.00000053  00000-0  14774-4 0  9996,2 51133  53.2168 156.6720 0001207 106.5288 253.5837 15.08846643112458,6917.86,95.437,540.56,538.89,0.0
51133.0,STARLINK-3356,PAYLOAD,2024-01-30 11:38:49,15.08839739,0.0001213,53.2171,152.2133,81.9937,278.1192,9.0275e-06,-1.44e-06,0.0,0 STARLINK-3356,1 51133U 22005AF  24030.48529357 -.00000144  00000-0  90275-5 0  9992,2 51133  53.2171 152.2133 0001213  81.9937 278.1192 15.08839739113722,6917.881,95.438,540.585,538.907,0.0
51133.0,STARLINK-3356,PAYLOAD,2024-01-30 13:14:12,15.0883921,0.0001185,53.2167,151.9158,81.3631,278.7496,6.6222e-06,-1.82e-06,0.0,0 STARLINK-3356,1 51133U 22005AF  24030.55153387 -.00000182  00000-0  66222-5 0  9993,2 51133  53.2167 151.9158 0001185  81.3631 278.7496 15.08839210112617,6917.883,95.438,540.568,538.928,0.0
51133.0,STARLINK-3356,PAYLOAD,2024-01-31 11:29:36,15.08836555,0.0001315,53.2171,147.7558,82.5209,277.5933,-6.6829e-06,-3.94e-06,0.0,0 STARLINK-3356,1 51133U 22005AF  24031.47889657 -.00000394  00000-0 -66829-5 0  9990,2 51133  53.2171 147.7558 0001315  82.5209 277.5933 15.08836555112755,6917.891,95.438,540.666,538.846,0.0
51133.0,STARLINK-3356,PAYLOAD,2024-02-01 11:20:24,15.08835351,0.0001344,53.2169,143.2952,81.2212,278.8932,-1.0832e-05,-4.6e-06,0.0,0 STARLINK-3356,1 51133U 22005AF  24032.47250027 -.00000460  00000-0 -10832-4 0  9990,2 51133  53.2169 143.2952 0001344  81.2212 278.8932 15.08835351114021,6917.895,95.438,540.689,538.83,0.0
51133.0,STARLINK-3356,PAYLOAD,2024-02-01 14:31:10,15.08833579,0.0001364,53.2175,142.6996,88.3333,271.7815,3.7561e-05,3.1e-06,0.0,0 STARLINK-3356,1 51133U 22005AF  24032.60498103  .00000310  00000-0  37561-4 0  9994,2 51133  53.2175 142.6996 0001364  88.3333 271.7815 15.08833579112922,6917.9,95.438,540.709,538.821,0.0
51133.0,STARLINK-3356,PAYLOAD,2024-02-02 14:21:56,15.08848047,0.0001427,53.2168,138.2389,95.8846,264.2309,0.00016104,2.276e-05,0.0,0 STARLINK-3356,1 51133U 22005AF  24033.59857015  .00002276  00000-0  16104-3 0  9996,2 51133  53.2168 138.2389 0001427  95.8846 264.2309 15.08848047113071,6917.856,95.437,540.708,538.734,0.0
51133.0,STARLINK-3356,PAYLOAD,2024-02-02 15:57:19,15.08848139,0.000147,53.2168,137.9407,97.1931,262.9229,0.00015906,2.245e-05,0.0,0 STARLINK-3356,1 51133U 22005AF  24033.66480975  .00002245  00000-0  15906-3 0  9996,2 51133  53.2168 137.9407 0001470  97.1931 262.9229 15.08848139114200,6917.856,95.437,540.737,538.704,0.0
51133.0,STARLINK-3356,PAYLOAD,2024-02-03 12:37:21,15.08837772,0.0001576,53.2168,134.0767,81.175,278.9421,2.4018e-05,9.4e-07,0.0,0 STARLINK-3356,1 51133U 22005AF  24034.52594289  .00000094  00000-0  24018-4 0  9991,2 51133  53.2168 134.0767 0001576  81.1750 278.9421 15.08837772113218,6917.887,95.438,540.842,538.662,0.0
51133.0,STARLINK-3356,PAYLOAD,2024-02-03 14:12:44,15.08839136,0.0001628,53.2173,133.7793,79.1428,280.9748,4.5466e-05,4.36e-06,0.0,0 STARLINK-3356,1 51133U 22005AF  24034.59218170  .00000436  00000-0  45466-4 0  9990,2 51133  53.2173 133.7793 0001628  79.1428 280.9748 15.08839136114342,6917.883,95.438,540.874,538.622,0.0
